UNKNOWN                 
1 82597U          26043.84128116  .00001789  00000+0  60921-3 0  9992
2 82597  66.7728 344.4307 0099346 264.3498  94.6269 14.36056204637891
UNKNOWN                 
1 82617U          26040.60641431  .00000678  00000+0  18253-3 0  9993
2 82617  74.0273 133.1399 0037379  60.8993 299.5901 14.49505232645355
UNKNOWN                 
1 82627U          26043.88290602  .00000590  00000+0  15155-2 0  9997
2 82627  82.4762 204.3143 0014081 292.8640 220.5175 13.16403599587001
UNKNOWN                 
1 82642U          26032.97791198  .00002355  00000+0  13099-2 0  9994
2 82642  98.9747 308.1803 0135744  93.2686 268.4022 14.07439108623348
UNKNOWN                 
1 82683U          26043.12452867  .00001474  00000+0  56783-3 0  9994
2 82683  98.1647 112.4588 0209967 215.8776 142.8149 14.20319861470984
UNKNOWN                 
1 82693U          26036.63820776  .00003572  00000+0  41093-2 0  9999
2 82693 100.5295  10.2040 0040884 251.5468 108.1228 13.69864023561279
UNKNOWN                 
1 82698U          26030.23835204  .00004334  00000+0  25156-2 0  9995
2 82698  61.6117  20.5745 0687638 307.6809  46.3706 13.29713249544821
UNKNOWN                 
1 82708U          26041.79145972  .00000448  00000+0  18798-2 0  9992
2 82708 102.1674 255.7647 0059607 166.7738 193.4932 12.90692490531269
UNKNOWN                 
1 82729U          26034.30198165  .00000491  00000+0  17478-2 0  9998
2 82729  67.9680  55.0044 0836970 334.6781  21.5304 12.17839691541607
UNKNOWN                 
1 82739U          26044.42351675  .00000825  00000+0  70695-3 0  9992
2 82739  99.0908 203.6335 0173301 125.9755 261.4828 13.82950786614772
UNKNOWN                 
1 82741U          26044.60831063  .00001979  00000+0  21470-2 0  9996
2 82741 102.8441 105.2962 0202697 127.2858 234.6943 13.66386759605666
UNKNOWN                 
1 82783U          26033.99349099  .00000814  00000+0  23517-2 0  9996
2 82783  90.3399  39.8342 0022315 335.8414  24.1665 13.09066800511197
