CCSDS_OMM_VERS = 2.0
CREATION_DATE  = 
ORIGINATOR     = 

OBJECT_NAME    = UNKNOWN
OBJECT_ID      = 
CENTER_NAME    = EARTH
REF_FRAME      = TEME
TIME_SYSTEM    = UTC
MEAN_ELEMENT_THEORY = SGP/SGP4

EPOCH          = 2026-02-12T20:11:26.692224
MEAN_MOTION    = 14.36056204
ECCENTRICITY   = .0099346
INCLINATION    = 66.7728
RA_OF_ASC_NODE = 344.4307
ARG_OF_PERICENTER = 264.3498
MEAN_ANOMALY   = 94.6269

EPHEMERIS_TYPE = 0
CLASSIFICATION_TYPE = U
NORAD_CAT_ID   = 82597
ELEMENT_SET_NO = 999
REV_AT_EPOCH   = 63789
BSTAR          = .60921E-3
MEAN_MOTION_DOT = .1789E-4
MEAN_MOTION_DDOT = 0

CCSDS_OMM_VERS = 2.0
CREATION_DATE  = 
ORIGINATOR     = 

OBJECT_NAME    = UNKNOWN
OBJECT_ID      = 
CENTER_NAME    = EARTH
REF_FRAME      = TEME
TIME_SYSTEM    = UTC
MEAN_ELEMENT_THEORY = SGP/SGP4

EPOCH          = 2026-02-09T14:33:14.196384
MEAN_MOTION    = 14.49505232
ECCENTRICITY   = .0037379
INCLINATION    = 74.0273
RA_OF_ASC_NODE = 133.1399
ARG_OF_PERICENTER = 60.8993
MEAN_ANOMALY   = 299.5901

EPHEMERIS_TYPE = 0
CLASSIFICATION_TYPE = U
NORAD_CAT_ID   = 82617
ELEMENT_SET_NO = 999
REV_AT_EPOCH   = 64535
BSTAR          = .18253E-3
MEAN_MOTION_DOT = .678E-5
MEAN_MOTION_DDOT = 0

CCSDS_OMM_VERS = 2.0
CREATION_DATE  = 
ORIGINATOR     = 

OBJECT_NAME    = UNKNOWN
OBJECT_ID      = 
CENTER_NAME    = EARTH
REF_FRAME      = TEME
TIME_SYSTEM    = UTC
MEAN_ELEMENT_THEORY = SGP/SGP4

EPOCH          = 2026-02-12T21:11:23.080128
MEAN_MOTION    = 13.16403599
ECCENTRICITY   = .0014081
INCLINATION    = 82.4762
RA_OF_ASC_NODE = 204.3143
ARG_OF_PERICENTER = 292.8640
MEAN_ANOMALY   = 220.5175

EPHEMERIS_TYPE = 0
CLASSIFICATION_TYPE = U
NORAD_CAT_ID   = 82627
ELEMENT_SET_NO = 999
REV_AT_EPOCH   = 58700
BSTAR          = .15155E-2
MEAN_MOTION_DOT = .59E-5
MEAN_MOTION_DDOT = 0

CCSDS_OMM_VERS = 2.0
CREATION_DATE  = 
ORIGINATOR     = 

OBJECT_NAME    = UNKNOWN
OBJECT_ID      = 
CENTER_NAME    = EARTH
REF_FRAME      = TEME
TIME_SYSTEM    = UTC
MEAN_ELEMENT_THEORY = SGP/SGP4

EPOCH          = 2026-02-01T23:28:11.595072
MEAN_MOTION    = 14.07439108
ECCENTRICITY   = .0135744
INCLINATION    = 98.9747
RA_OF_ASC_NODE = 308.1803
ARG_OF_PERICENTER = 93.2686
MEAN_ANOMALY   = 268.4022

EPHEMERIS_TYPE = 0
CLASSIFICATION_TYPE = U
NORAD_CAT_ID   = 82642
ELEMENT_SET_NO = 999
REV_AT_EPOCH   = 62334
BSTAR          = .13099E-2
MEAN_MOTION_DOT = .2355E-4
MEAN_MOTION_DDOT = 0

CCSDS_OMM_VERS = 2.0
CREATION_DATE  = 
ORIGINATOR     = 

OBJECT_NAME    = UNKNOWN
OBJECT_ID      = 
CENTER_NAME    = EARTH
REF_FRAME      = TEME
TIME_SYSTEM    = UTC
MEAN_ELEMENT_THEORY = SGP/SGP4

EPOCH          = 2026-02-12T02:59:19.277088
MEAN_MOTION    = 14.20319861
ECCENTRICITY   = .0209967
INCLINATION    = 98.1647
RA_OF_ASC_NODE = 112.4588
ARG_OF_PERICENTER = 215.8776
MEAN_ANOMALY   = 142.8149

EPHEMERIS_TYPE = 0
CLASSIFICATION_TYPE = U
NORAD_CAT_ID   = 82683
ELEMENT_SET_NO = 999
REV_AT_EPOCH   = 47098
BSTAR          = .56783E-3
MEAN_MOTION_DOT = .1474E-4
MEAN_MOTION_DDOT = 0

CCSDS_OMM_VERS = 2.0
CREATION_DATE  = 
ORIGINATOR     = 

OBJECT_NAME    = UNKNOWN
OBJECT_ID      = 
CENTER_NAME    = EARTH
REF_FRAME      = TEME
TIME_SYSTEM    = UTC
MEAN_ELEMENT_THEORY = SGP/SGP4

EPOCH          = 2026-02-05T15:19:01.150464
MEAN_MOTION    = 13.69864023
ECCENTRICITY   = .0040884
INCLINATION    = 100.5295
RA_OF_ASC_NODE = 10.2040
ARG_OF_PERICENTER = 251.5468
MEAN_ANOMALY   = 108.1228

EPHEMERIS_TYPE = 0
CLASSIFICATION_TYPE = U
NORAD_CAT_ID   = 82693
ELEMENT_SET_NO = 999
REV_AT_EPOCH   = 56127
BSTAR          = .41093E-2
MEAN_MOTION_DOT = .3572E-4
MEAN_MOTION_DDOT = 0

CCSDS_OMM_VERS = 2.0
CREATION_DATE  = 
ORIGINATOR     = 

OBJECT_NAME    = UNKNOWN
OBJECT_ID      = 
CENTER_NAME    = EARTH
REF_FRAME      = TEME
TIME_SYSTEM    = UTC
MEAN_ELEMENT_THEORY = SGP/SGP4

EPOCH          = 2026-01-30T05:43:13.616256
MEAN_MOTION    = 13.29713249
ECCENTRICITY   = .0687638
INCLINATION    = 61.6117
RA_OF_ASC_NODE = 20.5745
ARG_OF_PERICENTER = 307.6809
MEAN_ANOMALY   = 46.3706

EPHEMERIS_TYPE = 0
CLASSIFICATION_TYPE = U
NORAD_CAT_ID   = 82698
ELEMENT_SET_NO = 999
REV_AT_EPOCH   = 54482
BSTAR          = .25156E-2
MEAN_MOTION_DOT = .4334E-4
MEAN_MOTION_DDOT = 0

CCSDS_OMM_VERS = 2.0
CREATION_DATE  = 
ORIGINATOR     = 

OBJECT_NAME    = UNKNOWN
OBJECT_ID      = 
CENTER_NAME    = EARTH
REF_FRAME      = TEME
TIME_SYSTEM    = UTC
MEAN_ELEMENT_THEORY = SGP/SGP4

EPOCH          = 2026-02-10T18:59:42.119808
MEAN_MOTION    = 12.90692490
ECCENTRICITY   = .0059607
INCLINATION    = 102.1674
RA_OF_ASC_NODE = 255.7647
ARG_OF_PERICENTER = 166.7738
MEAN_ANOMALY   = 193.4932

EPHEMERIS_TYPE = 0
CLASSIFICATION_TYPE = U
NORAD_CAT_ID   = 82708
ELEMENT_SET_NO = 999
REV_AT_EPOCH   = 53126
BSTAR          = .18798E-2
MEAN_MOTION_DOT = .448E-5
MEAN_MOTION_DDOT = 0

CCSDS_OMM_VERS = 2.0
CREATION_DATE  = 
ORIGINATOR     = 

OBJECT_NAME    = UNKNOWN
OBJECT_ID      = 
CENTER_NAME    = EARTH
REF_FRAME      = TEME
TIME_SYSTEM    = UTC
MEAN_ELEMENT_THEORY = SGP/SGP4

EPOCH          = 2026-02-03T07:14:51.214560
MEAN_MOTION    = 12.17839691
ECCENTRICITY   = .083697
INCLINATION    = 67.9680
RA_OF_ASC_NODE = 55.0044
ARG_OF_PERICENTER = 334.6781
MEAN_ANOMALY   = 21.5304

EPHEMERIS_TYPE = 0
CLASSIFICATION_TYPE = U
NORAD_CAT_ID   = 82729
ELEMENT_SET_NO = 999
REV_AT_EPOCH   = 54160
BSTAR          = .17478E-2
MEAN_MOTION_DOT = .491E-5
MEAN_MOTION_DDOT = 0

CCSDS_OMM_VERS = 2.0
CREATION_DATE  = 
ORIGINATOR     = 

OBJECT_NAME    = UNKNOWN
OBJECT_ID      = 
CENTER_NAME    = EARTH
REF_FRAME      = TEME
TIME_SYSTEM    = UTC
MEAN_ELEMENT_THEORY = SGP/SGP4

EPOCH          = 2026-02-13T10:09:51.847200
MEAN_MOTION    = 13.82950786
ECCENTRICITY   = .0173301
INCLINATION    = 99.0908
RA_OF_ASC_NODE = 203.6335
ARG_OF_PERICENTER = 125.9755
MEAN_ANOMALY   = 261.4828

EPHEMERIS_TYPE = 0
CLASSIFICATION_TYPE = U
NORAD_CAT_ID   = 82739
ELEMENT_SET_NO = 999
REV_AT_EPOCH   = 61477
BSTAR          = .70695E-3
MEAN_MOTION_DOT = .825E-5
MEAN_MOTION_DDOT = 0

CCSDS_OMM_VERS = 2.0
CREATION_DATE  = 
ORIGINATOR     = 

OBJECT_NAME    = UNKNOWN
OBJECT_ID      = 
CENTER_NAME    = EARTH
REF_FRAME      = TEME
TIME_SYSTEM    = UTC
MEAN_ELEMENT_THEORY = SGP/SGP4

EPOCH          = 2026-02-13T14:35:58.038432
MEAN_MOTION    = 13.66386759
ECCENTRICITY   = .0202697
INCLINATION    = 102.8441
RA_OF_ASC_NODE = 105.2962
ARG_OF_PERICENTER = 127.2858
MEAN_ANOMALY   = 234.6943

EPHEMERIS_TYPE = 0
CLASSIFICATION_TYPE = U
NORAD_CAT_ID   = 82741
ELEMENT_SET_NO = 999
REV_AT_EPOCH   = 60566
BSTAR          = .2147E-2
MEAN_MOTION_DOT = .1979E-4
MEAN_MOTION_DDOT = 0

CCSDS_OMM_VERS = 2.0
CREATION_DATE  = 
ORIGINATOR     = 

OBJECT_NAME    = UNKNOWN
OBJECT_ID      = 
CENTER_NAME    = EARTH
REF_FRAME      = TEME
TIME_SYSTEM    = UTC
MEAN_ELEMENT_THEORY = SGP/SGP4

EPOCH          = 2026-02-02T23:50:37.621536
MEAN_MOTION    = 13.09066800
ECCENTRICITY   = .0022315
INCLINATION    = 90.3399
RA_OF_ASC_NODE = 39.8342
ARG_OF_PERICENTER = 335.8414
MEAN_ANOMALY   = 24.1665

EPHEMERIS_TYPE = 0
CLASSIFICATION_TYPE = U
NORAD_CAT_ID   = 82783
ELEMENT_SET_NO = 999
REV_AT_EPOCH   = 51119
BSTAR          = .23517E-2
MEAN_MOTION_DOT = .814E-5
MEAN_MOTION_DDOT = 0

